{"type": "FeatureCollection", "features": [ {"type": "Feature", "properties": {"norad_id": 34375, "name": "IRIDIUM 33 DEB", "group": "iridium-33-debris", "lat": 80.92849842236964, "lon": -18.1784135465871, "alt_km": 771.9964440213507, "timestamp": "2025-12-07T11:27:50.391348+00:00", "meta": {"OBJECT_NAME": "IRIDIUM 33 DEB", "OBJECT_ID": "1997-051FT", "EPOCH": "2025-12-06T13:07:23.276352", "MEAN_MOTION": 14.17975687, "ECCENTRICITY": 0.01028144, "INCLINATION": 86.433, "RA_OF_ASC_NODE": 185.193, "ARG_OF_PERICENTER": 146.2209, "MEAN_ANOMALY": 244.0709, "EPHEMERIS_TYPE": 0, "CLASSIFICATION_TYPE": "U", "NORAD_CAT_ID": 34375, "ELEMENT_SET_NO": 999, "REV_AT_EPOCH": 86624, "BSTAR": 0.00069808059, "MEAN_MOTION_DOT": 1.524e-05, "MEAN_MOTION_DDOT": 0}, "tle": {"line1": "1 34375U 97051FT  25340.54679718  .00001524  00000+0  69808-3 0  9990", "line2": "2 34375  86.4330 185.1930 0102814 146.2209 244.0709 14.17975687866242"}}, "geometry": {"type": "Point", "coordinates": [-18.1784135465871, 80.92849842236964]}}, {"type": "Feature", "properties": {"norad_id": 34376, "name": "IRIDIUM 33 DEB", "group": "iridium-33-debris", "lat": -10.723024261213025, "lon": 8.20320500090737, "alt_km": 707.6790504210667, "timestamp": "2025-12-07T11:27:50.391359+00:00", "meta": {"OBJECT_NAME": "IRIDIUM 33 DEB", "OBJECT_ID": "1997-051FU", "EPOCH": "2025-12-06T19:05:30.332544", "MEAN_MOTION": 14.6244174, "ECCENTRICITY": 0.00264861, "INCLINATION": 86.2982, "RA_OF_ASC_NODE": 9.2122, "ARG_OF_PERICENTER": 186.8183, "MEAN_ANOMALY": 173.2672, "EPHEMERIS_TYPE": 0, "CLASSIFICATION_TYPE": "U", "NORAD_CAT_ID": 34376, "ELEMENT_SET_NO": 999, "REV_AT_EPOCH": 87920, "BSTAR": 0.0024561466, "MEAN_MOTION_DOT": 0.00012526, "MEAN_MOTION_DDOT": 0}, "tle": {"line1": "1 34376U 97051FU  25340.79548996  .00012526  00000+0  24561-2 0  9991", "line2": "2 34376  86.2982   9.2122 0026486 186.8183 173.2672 14.62441740879204"}}, "geometry": {"type": "Point", "coordinates": [8.20320500090737, -10.723024261213025]}}, {"type": "Feature", "properties": {"norad_id": 34486, "name": "IRIDIUM 33 DEB", "group": "iridium-33-debris", "lat": -60.066142977633625, "lon": 8.162911426171897, "alt_km": 597.2724198197839, "timestamp": "2025-12-07T11:27:50.391370+00:00", "meta": {"OBJECT_NAME": "IRIDIUM 33 DEB", "OBJECT_ID": "1997-051GB", "EPOCH": "2025-12-06T13:48:30.216672", "MEAN_MOTION": 14.95383361, "ECCENTRICITY": 0.00132255, "INCLINATION": 86.3926, "RA_OF_ASC_NODE": 14.8692, "ARG_OF_PERICENTER": 133.3497, "MEAN_ANOMALY": 352.0422, "EPHEMERIS_TYPE": 0, "CLASSIFICATION_TYPE": "U", "NORAD_CAT_ID": 34486, "ELEMENT_SET_NO": 999, "REV_AT_EPOCH": 88894, "BSTAR": 0.0035222853, "MEAN_MOTION_DOT": 0.00039136, "MEAN_MOTION_DDOT": 0}, "tle": {"line1": "1 34486U 97051GB  25340.57534973  .00039136  00000+0  35223-2 0  9992", "line2": "2 34486  86.3926  14.8692 0013225 133.3497 352.0422 14.95383361888942"}}, "geometry": {"type": "Point", "coordinates": [8.162911426171897, -60.066142977633625]}}, {"type": "Feature", "properties": {"norad_id": 34487, "name": "IRIDIUM 33 DEB", "group": "iridium-33-debris", "lat": -46.59836989481599, "lon": -161.4803827150649, "alt_km": 751.5033149728306, "timestamp": "2025-12-07T11:27:50.391380+00:00", "meta": {"OBJECT_NAME": "IRIDIUM 33 DEB", "OBJECT_ID": "1997-051GC", "EPOCH": "2025-12-05T08:34:04.230624", "MEAN_MOTION": 14.43201608, "ECCENTRICITY": 0.00321216, "INCLINATION": 86.3441, "RA_OF_ASC_NODE": 15.5556, "ARG_OF_PERICENTER": 151.732, "MEAN_ANOMALY": 223.5238, "EPHEMERIS_TYPE": 0, "CLASSIFICATION_TYPE": "U", "NORAD_CAT_ID": 34487, "ELEMENT_SET_NO": 999, "REV_AT_EPOCH": 88142, "BSTAR": 0.00035058691, "MEAN_MOTION_DOT": 1.205e-05, "MEAN_MOTION_DDOT": 0}, "tle": {"line1": "1 34487U 97051GC  25339.35699341  .00001205  00000+0  35059-3 0  9992", "line2": "2 34487  86.3441  15.5556 0032121 151.7320 223.5238 14.43201608881426"}}, "geometry": {"type": "Point", "coordinates": [-161.4803827150649, -46.59836989481599]}}, {"type": "Feature", "properties": {"norad_id": 34488, "name": "IRIDIUM 33 DEB", "group": "iridium-33-debris", "lat": 21.922582596390644, "lon": -50.10273534703261, "alt_km": 474.5044277267434, "timestamp": "2025-12-07T11:27:50.391391+00:00", "meta": {"OBJECT_NAME": "IRIDIUM 33 DEB", "OBJECT_ID": "1997-051GD", "EPOCH": "2025-12-06T14:55:40.946016", "MEAN_MOTION": 15.27290051, "ECCENTRICITY": 0.00149214, "INCLINATION": 86.3249, "RA_OF_ASC_NODE": 308.8374, "ARG_OF_PERICENTER": 60.0841, "MEAN_ANOMALY": 300.1886, "EPHEMERIS_TYPE": 0, "CLASSIFICATION_TYPE": "U", "NORAD_CAT_ID": 34488, "ELEMENT_SET_NO": 999, "REV_AT_EPOCH": 89146, "BSTAR": 0.0068100775, "MEAN_MOTION_DOT": 0.0018679, "MEAN_MOTION_DDOT": 0}, "tle": {"line1": "1 34488U 97051GD  25340.62200169  .00186790  00000+0  68101-2 0  9997", "line2": "2 34488  86.3249 308.8374 0014921  60.0841 300.1886 15.27290051891466"}}, "geometry": {"type": "Point", "coordinates": [-50.10273534703261, 21.922582596390644]}}, {"type": "Feature", "properties": {"norad_id": 34492, "name": "IRIDIUM 33 DEB", "group": "iridium-33-debris", "lat": -69.67217041300022, "lon": -32.8277752068387, "alt_km": 701.2573225524729, "timestamp": "2025-12-07T11:27:50.391401+00:00", "meta": {"OBJECT_NAME": "IRIDIUM 33 DEB", "OBJECT_ID": "1997-051GH", "EPOCH": "2025-12-06T11:15:07.046784", "MEAN_MOTION": 14.25471121, "ECCENTRICITY": 0.0189794, "INCLINATION": 86.4729, "RA_OF_ASC_NODE": 337.163, "ARG_OF_PERICENTER": 258.5632, "MEAN_ANOMALY": 256.3943, "EPHEMERIS_TYPE": 0, "CLASSIFICATION_TYPE": "U", "NORAD_CAT_ID": 34492, "ELEMENT_SET_NO": 999, "REV_AT_EPOCH": 84969, "BSTAR": 0.010564702, "MEAN_MOTION_DOT": 0.00030242, "MEAN_MOTION_DDOT": 0}, "tle": {"line1": "1 34492U 97051GH  25340.46883156  .00030242  00000+0  10565-1 0  9997", "line2": "2 34492  86.4729 337.1630 0189794 258.5632 256.3943 14.25471121849698"}}, "geometry": {"type": "Point", "coordinates": [-32.8277752068387, -69.67217041300022]}}, {"type": "Feature", "properties": {"norad_id": 34497, "name": "IRIDIUM 33 DEB", "group": "iridium-33-debris", "lat": 46.49659468348683, "lon": -129.28236109754025, "alt_km": 837.524788824564, "timestamp": "2025-12-07T11:27:50.391411+00:00", "meta": {"OBJECT_NAME": "IRIDIUM 33 DEB", "OBJECT_ID": "1997-051GN", "EPOCH": "2025-12-06T11:20:43.375200", "MEAN_MOTION": 14.27426067, "ECCENTRICITY": 0.00794495, "INCLINATION": 86.2786, "RA_OF_ASC_NODE": 55.0789, "ARG_OF_PERICENTER": 359.9883, "MEAN_ANOMALY": 11.7804, "EPHEMERIS_TYPE": 0, "CLASSIFICATION_TYPE": "U", "NORAD_CAT_ID": 34497, "ELEMENT_SET_NO": 999, "REV_AT_EPOCH": 86794, "BSTAR": 0.0011602474, "MEAN_MOTION_DOT": 2.96e-05, "MEAN_MOTION_DDOT": 0}, "tle": {"line1": "1 34497U 97051GN  25340.47272425  .00002960  00000+0  11602-2 0  9994", "line2": "2 34497  86.2786  55.0789 0079449 359.9883  11.7804 14.27426067867942"}}, "geometry": {"type": "Point", "coordinates": [-129.28236109754025, 46.49659468348683]}}, {"type": "Feature", "properties": {"norad_id": 34508, "name": "IRIDIUM 33 DEB", "group": "iridium-33-debris", "lat": 82.02442156472323, "lon": 131.8090700814938, "alt_km": 770.0241751110525, "timestamp": "2025-12-07T11:27:50.391422+00:00", "meta": {"OBJECT_NAME": "IRIDIUM 33 DEB", "OBJECT_ID": "1997-051GZ", "EPOCH": "2025-12-06T01:40:58.602144", "MEAN_MOTION": 14.38332013, "ECCENTRICITY": 0.00656496, "INCLINATION": 86.3709, "RA_OF_ASC_NODE": 105.4704, "ARG_OF_PERICENTER": 194.575, "MEAN_ANOMALY": 165.3557, "EPHEMERIS_TYPE": 0, "CLASSIFICATION_TYPE": "U", "NORAD_CAT_ID": 34508, "ELEMENT_SET_NO": 999, "REV_AT_EPOCH": 87213, "BSTAR": 0.0029041862, "MEAN_MOTION_DOT": 9.088e-05, "MEAN_MOTION_DDOT": 0}, "tle": {"line1": "1 34508U 97051GZ  25340.07012271  .00009088  00000+0  29042-2 0  9999", "line2": "2 34508  86.3709 105.4704 0065649 194.5750 165.3557 14.38332013872138"}}, "geometry": {"type": "Point", "coordinates": [131.8090700814938, 82.02442156472323]}}, {"type": "Feature", "properties": {"norad_id": 34521, "name": "IRIDIUM 33 DEB", "group": "iridium-33-debris", "lat": 30.203895305296527, "lon": -149.24682791230956, "alt_km": 681.3310149200252, "timestamp": "2025-12-07T11:27:50.391433+00:00", "meta": {"OBJECT_NAME": "IRIDIUM 33 DEB", "OBJECT_ID": "1997-051HN", "EPOCH": "2025-12-06T13:26:47.996736", "MEAN_MOTION": 14.63284737, "ECCENTRICITY": 0.00010642, "INCLINATION": 86.3802, "RA_OF_ASC_NODE": 33.2686, "ARG_OF_PERICENTER": 262.3023, "MEAN_ANOMALY": 97.8068, "EPHEMERIS_TYPE": 0, "CLASSIFICATION_TYPE": "U", "NORAD_CAT_ID": 34521, "ELEMENT_SET_NO": 999, "REV_AT_EPOCH": 88382, "BSTAR": 0.0016169867, "MEAN_MOTION_DOT": 8.362e-05, "MEAN_MOTION_DDOT": 0}, "tle": {"line1": "1 34521U 97051HN  25340.56027774  .00008362  00000+0  16170-2 0  9994", "line2": "2 34521  86.3802  33.2686 0001064 262.3023  97.8068 14.63284737883823"}}, "geometry": {"type": "Point", "coordinates": [-149.24682791230956, 30.203895305296527]}}, {"type": "Feature", "properties": {"norad_id": 34525, "name": "IRIDIUM 33 DEB", "group": "iridium-33-debris", "lat": -4.9887133940571795, "lon": 48.772811627160245, "alt_km": 754.3344281732698, "timestamp": "2025-12-07T11:27:50.391443+00:00", "meta": {"OBJECT_NAME": "IRIDIUM 33 DEB", "OBJECT_ID": "1997-051HS", "EPOCH": "2025-12-06T03:59:55.296672", "MEAN_MOTION": 14.42880527, "ECCENTRICITY": 0.00065785, "INCLINATION": 86.3735, "RA_OF_ASC_NODE": 49.6493, "ARG_OF_PERICENTER": 110.3274, "MEAN_ANOMALY": 279.0864, "EPHEMERIS_TYPE": 0, "CLASSIFICATION_TYPE": "U", "NORAD_CAT_ID": 34525, "ELEMENT_SET_NO": 999, "REV_AT_EPOCH": 87993, "BSTAR": 0.0007253314, "MEAN_MOTION_DOT": 2.441e-05, "MEAN_MOTION_DDOT": 0}, "tle": {"line1": "1 34525U 97051HS  25340.16661223  .00002441  00000+0  72533-3 0  9995", "line2": "2 34525  86.3735  49.6493 0006578 110.3274 279.0864 14.42880527879935"}}, "geometry": {"type": "Point", "coordinates": [48.772811627160245, -4.9887133940571795]}}]}